[Satellite]
VERSION=1.1
NAME=ITAMSAT (IO-26)
NICKNAME=IO-26
TLE1=1 22826U 93061D   17186.27175846 -.00000007  00000-0  15068-4 0  9994
TLE2=2 22826  98.8075 152.1567 0007791 269.7090  90.3199 14.30328709239915
